IRIDIUM 116             
1 43072U 17083C   24116.55175016  .00000120  00000+0  35815-4 0  9997
2 43072  86.3913 289.0815 0001921  88.9177 271.2238 14.34217499331998
IRIDIUM 130             
1 43073U 17083D   24116.52003674  .00000397  00000+0  13477-3 0  9990
2 43073  86.3920 289.2944 0002186  90.0873 270.0573 14.34219513331935
IRIDIUM 151             
1 43074U 17083E   24116.56443548  .00000182  00000+0  57972-4 0  9994
2 43074  86.3916 289.1167 0002247  99.7745 260.3704 14.34217448331965
IRIDIUM 134             
1 43075U 17083F   24116.53272281  .00000337  00000+0  11344-3 0  9990
2 43075  86.3917 289.1272 0002050  84.1852 275.9577 14.34217354331925
IRIDIUM 137             
1 43076U 17083G   24116.54540019  .00000554  00000+0  19069-3 0  9992
2 43076  86.3891 289.1961 0002481 110.7521 249.3941 14.34222835331996
IRIDIUM 141             
1 43077U 17083H   24116.53906496  .00000015  00000+0 -15719-5 0  9990
2 43077  86.3912 289.0767 0002101  92.4798 267.6639 14.34217348331995
IRIDIUM 153             
1 43078U 17083J   24116.49124290  .00001226  00000+0  43083-3 0  9997
2 43078  86.3947 257.5305 0002595  95.0523 265.0969 14.34214872333094
IRIDIUM 131             
1 43079U 17083K   24116.52637851  .00000738  00000+0  25627-3 0  9995
2 43079  86.3903 289.2138 0002415 101.8598 258.2869 14.34218800331920
